NORAD_CAT_ID,OBJECT_NAME,OBJECT_TYPE,EPOCH,MEAN_MOTION,ECCENTRICITY,INCLINATION,RA_OF_ASC_NODE,ARG_OF_PERICENTER,MEAN_ANOMALY,BSTAR,MEAN_MOTION_DOT,MEAN_MOTION_DDOT,TLE_LINE0,TLE_LINE1,TLE_LINE2,SEMIMAJOR_AXIS,PERIOD,APOGEE,PERIGEE,DECAYED
53729.0,STARLINK-4651,PAYLOAD,2023-05-11 11:42:26,15.08843266,9.85e-05,53.2138,212.457,80.5689,279.5414,8.938e-05,1.135e-05,0.0,0 STARLINK-4651,1 53729U 22107AF  23131.48780205  .00001135  00000-0  89380-4 0  9994,2 53729  53.2138 212.4570 0000985  80.5689 279.5414 15.08843266 38601,6917.87,95.437,540.417,539.054,0.0
53729.0,STARLINK-4651,PAYLOAD,2023-05-11 22:50:07,15.08845039,0.0001024,53.2139,210.3759,76.6779,283.4327,0.00012184,1.652e-05,0.0,0 STARLINK-4651,1 53729U 22107AF  23131.95148071  .00001652  00000-0  12184-3 0  9996,2 53729  53.2139 210.3759 0001024  76.6779 283.4327 15.08845039 38673,6917.865,95.437,540.438,539.022,0.0
53729.0,STARLINK-4651,PAYLOAD,2023-05-12 08:22:27,15.08838072,0.0001031,53.2153,208.5896,90.6726,269.4384,0.00011705,1.575e-05,0.0,0 STARLINK-4651,1 53729U 22107AF  23132.34892466  .00001575  00000-0  11705-3 0  9996,2 53729  53.2153 208.5896 0001031  90.6726 269.4384 15.08838072 38100,6917.886,95.438,540.465,539.038,0.0
53729.0,STARLINK-4651,PAYLOAD,2023-05-13 11:23:59,15.08847978,0.0001171,53.2151,203.531,117.3186,242.7926,7.0214e-05,8.3e-06,0.0,0 STARLINK-4651,1 53729U 22107AF  23133.47499644  .00000830  00000-0  70214-4 0  9996,2 53729  53.2151 203.5310 0001171 117.3186 242.7926 15.08847978 38275,6917.856,95.437,540.531,538.911,0.0
53729.0,STARLINK-4651,PAYLOAD,2023-05-14 12:50:15,15.08792459,0.0001182,53.2151,198.7761,76.4607,283.6517,-0.00030167,-5.079e-05,0.0,0 STARLINK-4651,1 53729U 22107AF  23134.53489614 -.00005079  00000-0 -30167-3 0  9994,2 53729  53.2151 198.7761 0001182  76.4607 283.6517 15.08792459 38436,6918.026,95.441,540.708,539.073,0.0
53729.0,STARLINK-4651,PAYLOAD,2023-05-14 20:47:09,15.08810217,8.29e-05,53.2147,197.2889,97.3557,262.7529,-0.00012992,-2.353e-05,0.0,0 STARLINK-4651,1 53729U 22107AF  23134.86608479 -.00002353  00000-0 -12992-3 0  9990,2 53729  53.2147 197.2889 0000829  97.3557 262.7529 15.08810217 38488,6917.971,95.439,540.41,539.263,0.0
53729.0,STARLINK-4651,PAYLOAD,2023-05-15 04:44:03,15.08839594,0.0001181,53.2148,195.8026,86.1029,274.0098,6.1412e-05,6.9e-06,0.0,0 STARLINK-4651,1 53729U 22107AF  23135.19726684  .00000690  00000-0  61412-4 0  9998,2 53729  53.2148 195.8026 0001181  86.1029 274.0098 15.08839594 38530,6917.882,95.438,540.564,538.93,0.0
53729.0,STARLINK-4651,PAYLOAD,2023-05-15 12:40:59,15.08845117,0.0001208,53.2148,194.3155,87.4546,272.6585,0.00011762,1.585e-05,0.0,0 STARLINK-4651,1 53729U 22107AF  23135.52846293  .00001585  00000-0  11762-3 0  9990,2 53729  53.2148 194.3155 0001208  87.4546 272.6585 15.08845117 39214,6917.865,95.437,540.565,538.894,0.0
53729.0,STARLINK-4651,PAYLOAD,2023-05-16 10:56:23,15.08838957,0.0001342,53.2147,190.1516,90.0334,270.0812,0.00061711,9.547e-05,0.0,0 STARLINK-4651,1 53729U 22107AF  23136.45582176  .00009547  00000-0  61711-3 0  9995,2 53729  53.2147 190.1516 0001342  90.0334 270.0812 15.08838957 39356,6917.884,95.438,540.677,538.82,0.0
53729.0,STARLINK-4651,PAYLOAD,2023-05-16 23:39:27,15.08854732,9.9e-05,53.2148,187.7723,138.5919,221.5149,0.00033914,5.116e-05,0.0,0 STARLINK-4651,1 53729U 22107AF  23136.98573753  .00005116  00000-0  33914-3 0  9996,2 53729  53.2148 187.7723 0000990 138.5919 221.5149 15.08854732 38806,6917.835,95.437,540.385,539.015,0.0
53729.0,STARLINK-4651,PAYLOAD,2023-05-17 20:19:28,15.08851888,0.0001243,53.2144,183.9075,87.8605,272.2529,-1.9669e-05,-6.01e-06,0.0,0 STARLINK-4651,1 53729U 22107AF  23137.84685808 -.00000601  00000-0 -19669-4 0  9995,2 53729  53.2144 183.9075 0001243  87.8605 272.2529 15.08851888 39568,6917.844,95.437,540.569,538.849,0.0
53729.0,STARLINK-4651,PAYLOAD,2023-05-18 02:41:00,15.08854427,0.0001472,53.2146,182.7187,115.2409,244.8736,-0.00010652,-1.984e-05,0.0,0 STARLINK-4651,1 53729U 22107AF  23138.11181552 -.00001984  00000-0 -10652-3 0  9990,2 53729  53.2146 182.7187 0001472 115.2409 244.8736 15.08854427 38974,6917.836,95.437,540.72,538.683,0.0
53729.0,STARLINK-4651,PAYLOAD,2023-05-18 10:37:56,15.08849396,0.0001258,53.2148,181.2297,94.7397,265.3738,-0.00010921,-2.026e-05,0.0,0 STARLINK-4651,1 53729U 22107AF  23138.44301649 -.00002026  00000-0 -10921-3 0  9994,2 53729  53.2148 181.2297 0001258  94.7397 265.3738 15.08849396 39656,6917.852,95.437,540.587,538.846,0.0
53729.0,STARLINK-4651,PAYLOAD,2023-05-18 21:45:38,15.08848411,0.0001112,53.2146,179.1482,85.2643,274.8476,-4.8396e-05,-1.058e-05,0.0,0 STARLINK-4651,1 53729U 22107AF  23138.90669199 -.00001058  00000-0 -48396-4 0  9994,2 53729  53.2146 179.1482 0001112  85.2643 274.8476 15.08848411 39723,6917.855,95.437,540.489,538.95,0.0
53729.0,STARLINK-4651,PAYLOAD,2023-05-19 08:53:19,15.08847118,0.000111,53.2147,177.0667,84.2201,275.8918,2.8209e-05,1.61e-06,0.0,0 STARLINK-4651,1 53729U 22107AF  23139.37036844  .00000161  00000-0  28209-4 0  9994,2 53729  53.2147 177.0667 0001110  84.2201 275.8918 15.08847118 39166,6917.859,95.437,540.492,538.956,0.0
53729.0,STARLINK-4651,PAYLOAD,2023-05-19 20:01:01,15.08844733,0.0001099,53.2148,174.9851,83.9239,276.1878,5.0603e-05,5.18e-06,0.0,0 STARLINK-4651,1 53729U 22107AF  23139.83404733  .00000518  00000-0  50603-4 0  9990,2 53729  53.2148 174.9851 0001099  83.9239 276.1878 15.08844733 39867,6917.866,95.437,540.491,538.971,0.0
53729.0,STARLINK-4651,PAYLOAD,2023-05-20 02:22:34,15.08838858,0.0001094,53.2148,173.7959,83.2318,276.8798,8.807e-05,1.114e-05,0.0,0 STARLINK-4651,1 53729U 22107AF  23140.09900957  .00001114  00000-0  88070-4 0  9991,2 53729  53.2148 173.7959 0001094  83.2318 276.8798 15.08838858 39273,6917.884,95.438,540.506,538.992,0.0
53729.0,STARLINK-4651,PAYLOAD,2023-05-20 11:54:52,15.08847651,0.0001122,53.2147,172.0114,84.9772,275.1348,0.00014168,1.968e-05,0.0,0 STARLINK-4651,1 53729U 22107AF  23140.49644329  .00001968  00000-0  14168-3 0  9996,2 53729  53.2147 172.0114 0001122  84.9772 275.1348 15.08847651 39332,6917.857,95.437,540.498,538.946,0.0
53729.0,STARLINK-4651,PAYLOAD,2023-05-21 06:59:30,15.08844218,0.000116,53.2147,168.4425,86.7376,273.3748,2.5453e-05,1.17e-06,0.0,0 STARLINK-4651,1 53729U 22107AF  23141.29132597  .00000117  00000-0  25453-4 0  9999,2 53729  53.2147 168.4425 0001160  86.7376 273.3748 15.08844218 39451,6917.867,95.437,540.535,538.93,0.0
53729.0,STARLINK-4651,PAYLOAD,2023-05-21 08:34:53,15.0884404,0.0001167,53.2149,168.1446,96.6016,263.5109,2.8768e-05,1.7e-06,0.0,0 STARLINK-4651,1 53729U 22107AF  23141.35756522  .00000170  00000-0  28768-4 0  9997,2 53729  53.2149 168.1446 0001167  96.6016 263.5109 15.08844040 40098,6917.868,95.437,540.54,538.926,0.0
53729.0,STARLINK-4651,PAYLOAD,2023-05-22 02:04:08,15.08835152,0.0001284,53.2157,164.8738,97.7336,262.3802,-5.6578e-05,-1.188e-05,0.0,0 STARLINK-4651,1 53729U 22107AF  23142.08621402 -.00001188  00000-0 -56578-4 0  9998,2 53729  53.2157 164.8738 0001284  97.7336 262.3802 15.08835152 39573,6917.895,95.438,540.648,538.872,0.0
53729.0,STARLINK-4651,PAYLOAD,2023-05-22 08:25:41,15.08836033,0.0001291,53.2156,163.6849,92.3109,267.8031,-4.0952e-05,-9.39e-06,0.0,0 STARLINK-4651,1 53729U 22107AF  23142.35117395 -.00000939  00000-0 -40952-4 0  9991,2 53729  53.2156 163.6849 0001291  92.3109 267.8031 15.08836033 40248,6917.893,95.438,540.651,538.864,0.0
53729.0,STARLINK-4651,PAYLOAD,2023-05-22 17:58:00,15.0883609,0.0001229,53.2155,161.9029,111.5117,248.6006,-6.5591e-05,-1.331e-05,0.0,0 STARLINK-4651,1 53729U 22107AF  23142.74861521 -.00001331  00000-0 -65591-4 0  9994,2 53729  53.2155 161.9029 0001229 111.5117 248.6006 15.08836090 40301,6917.892,95.438,540.608,538.907,0.0
53729.0,STARLINK-4651,PAYLOAD,2023-05-23 11:27:16,15.08781324,0.000149,53.215,158.6308,91.9854,268.1309,0.00075471,0.00011724,0.0,0 STARLINK-4651,1 53729U 22107AF  23143.47726913  .00011724  00000-0  75471-3 0  9992,2 53729  53.2150 158.6308 0001490  91.9854 268.1309 15.08781324 39780,6918.06,95.441,540.956,538.894,0.0
53729.0,STARLINK-4651,PAYLOAD,2023-05-23 17:48:47,15.08833718,0.0001087,53.2153,157.4415,94.1997,265.9119,7.6849e-05,9.35e-06,0.0,0 STARLINK-4651,1 53729U 22107AF  23143.74221674  .00000935  00000-0  76849-4 0  9999,2 53729  53.2153 157.4415 0001087  94.1997 265.9119 15.08833718 39828,6917.9,95.438,540.517,539.013,0.0
53729.0,STARLINK-4651,PAYLOAD,2023-05-24 09:42:38,15.08837426,0.0001076,53.2152,154.4673,90.3217,269.7898,0.00012525,1.706e-05,0.0,0 STARLINK-4651,1 53729U 22107AF  23144.40461566  .00001706  00000-0  12525-3 0  9996,2 53729  53.2152 154.4673 0001076  90.3217 269.7898 15.08837426 40559,6917.888,95.438,540.498,539.009,0.0
53729.0,STARLINK-4651,PAYLOAD,2023-05-26 04:38:03,15.08840224,0.0001188,53.2159,146.4369,83.2219,276.8908,2.7809e-05,1.55e-06,0.0,0 STARLINK-4651,1 53729U 22107AF  23146.19309928  .00000155  00000-0  27809-4 0  9996,2 53729  53.2159 146.4369 0001188  83.2219 276.8908 15.08840224 40197,6917.88,95.438,540.567,538.923,0.0
53729.0,STARLINK-4651,PAYLOAD,2023-05-26 07:48:49,15.08841008,0.0001134,53.2157,145.8411,89.769,270.3432,3.2982e-05,2.37e-06,0.0,0 STARLINK-4651,1 53729U 22107AF  23146.32557800  .00000237  00000-0  32982-4 0  9994,2 53729  53.2157 145.8411 0001134  89.7690 270.3432 15.08841008 40845,6917.877,95.437,540.527,538.958,0.0
53729.0,STARLINK-4651,PAYLOAD,2023-05-27 09:14:59,15.08841362,0.0001105,53.2151,141.085,85.3693,274.7425,6.0845e-05,6.81e-06,0.0,0 STARLINK-4651,1 53729U 22107AF  23147.38541626  .00000681  00000-0  60845-4 0  9992,2 53729  53.2151 141.0850 0001105  85.3693 274.7425 15.08841362 40378,6917.876,95.437,540.506,538.977,0.0
53729.0,STARLINK-4651,PAYLOAD,2023-05-27 17:11:55,15.08840596,0.0001107,53.2151,139.5981,84.8941,275.2177,5.4551e-05,5.8e-06,0.0,0 STARLINK-4651,1 53729U 22107AF  23147.71661674  .00000580  00000-0  54551-4 0  9990,2 53729  53.2151 139.5981 0001107  84.8941 275.2177 15.08840596 41051,6917.879,95.438,540.509,538.978,0.0
